MALLIGYONG-1            
1 58400U 23179A   24123.88888730  .00006504  00000+0  28526-3 0  9991
2 58400  97.4097  11.4216 0010984  67.8364 292.4037 15.22257533 24835
